{
  "links" : {
    "next" : "https://api.nasa.gov/neo/rest/v1/feed?start_date=1997-01-23&end_date=1997-01-23&detailed=true&api_key=t0TVs3DtDT2H8Oy2Zy8m2eVrNsAVKAexjcZXUckd",
    "prev" : "https://api.nasa.gov/neo/rest/v1/feed?start_date=1997-01-21&end_date=1997-01-21&detailed=true&api_key=t0TVs3DtDT2H8Oy2Zy8m2eVrNsAVKAexjcZXUckd",
    "self" : "https://api.nasa.gov/neo/rest/v1/feed?start_date=1997-01-22&end_date=1997-01-22&detailed=true&api_key=t0TVs3DtDT2H8Oy2Zy8m2eVrNsAVKAexjcZXUckd"
  },
  "element_count" : 4,
  "near_earth_objects" : {
    "1997-01-22" : [ {
      "links" : {
        "self" : "https://api.nasa.gov/neo/rest/v1/neo/2418896?api_key=t0TVs3DtDT2H8Oy2Zy8m2eVrNsAVKAexjcZXUckd"
      },
      "neo_reference_id" : "2418896",
      "name" : "418896 (2009 AK15)",
      "nasa_jpl_url" : "http://ssd.jpl.nasa.gov/sbdb.cgi?sstr=2418896",
      "absolute_magnitude_h" : 19.4,
      "estimated_diameter" : {
        "kilometers" : {
          "estimated_diameter_min" : 0.3503926411,
          "estimated_diameter_max" : 0.7835017643
        },
        "meters" : {
          "estimated_diameter_min" : 350.3926411083,
          "estimated_diameter_max" : 783.5017643338
        },
        "miles" : {
          "estimated_diameter_min" : 0.2177238258,
          "estimated_diameter_max" : 0.4868452748
        },
        "feet" : {
          "estimated_diameter_min" : 1149.5821926537,
          "estimated_diameter_max" : 2570.543928497
        }
      },
      "is_potentially_hazardous_asteroid" : false,
      "close_approach_data" : [ {
        "close_approach_date" : "1997-01-22",
        "epoch_date_close_approach" : 853920000000,
        "relative_velocity" : {
          "kilometers_per_second" : "14.2039902095",
          "kilometers_per_hour" : "51134.3647542893",
          "miles_per_hour" : "31772.905699686"
        },
        "miss_distance" : {
          "astronomical" : "0.2189979803",
          "lunar" : "85.1902160645",
          "kilometers" : "32761632",
          "miles" : "20357134"
        },
        "orbiting_body" : "Earth"
      } ],
      "orbital_data" : {
        "orbit_id" : "33",
        "orbit_determination_date" : "2017-04-06 09:21:13",
        "orbit_uncertainty" : "0",
        "minimum_orbit_intersection" : ".207609",
        "jupiter_tisserand_invariant" : "4.850",
        "epoch_osculation" : "2458000.5",
        "eccentricity" : ".4291309098382083",
        "semi_major_axis" : "1.310730875687124",
        "inclination" : "13.82953741686056",
        "ascending_node_longitude" : "186.846607303926",
        "orbital_period" : "548.1112569914042",
        "perihelion_distance" : ".7482557424504769",
        "perihelion_argument" : "6.424365650004586",
        "aphelion_distance" : "1.873206008923771",
        "perihelion_time" : "2458187.900639778934",
        "mean_anomaly" : "236.9150798129397",
        "mean_motion" : ".656800960403639",
        "equinox" : "J2000"
      }
    }, {
      "links" : {
        "self" : "https://api.nasa.gov/neo/rest/v1/neo/2436037?api_key=t0TVs3DtDT2H8Oy2Zy8m2eVrNsAVKAexjcZXUckd"
      },
      "neo_reference_id" : "2436037",
      "name" : "436037 (2009 NJ)",
      "nasa_jpl_url" : "http://ssd.jpl.nasa.gov/sbdb.cgi?sstr=2436037",
      "absolute_magnitude_h" : 18.6,
      "estimated_diameter" : {
        "kilometers" : {
          "estimated_diameter_min" : 0.5064714588,
          "estimated_diameter_max" : 1.1325046106
        },
        "meters" : {
          "estimated_diameter_min" : 506.4714588346,
          "estimated_diameter_max" : 1132.5046106177
        },
        "miles" : {
          "estimated_diameter_min" : 0.3147066768,
          "estimated_diameter_max" : 0.7037055224
        },
        "feet" : {
          "estimated_diameter_min" : 1661.651821003,
          "estimated_diameter_max" : 3715.566426699
        }
      },
      "is_potentially_hazardous_asteroid" : false,
      "close_approach_data" : [ {
        "close_approach_date" : "1997-01-22",
        "epoch_date_close_approach" : 853920000000,
        "relative_velocity" : {
          "kilometers_per_second" : "26.4726009386",
          "kilometers_per_hour" : "95301.3633788995",
          "miles_per_hour" : "59216.5610395168"
        },
        "miss_distance" : {
          "astronomical" : "0.2556162169",
          "lunar" : "99.4347076416",
          "kilometers" : "38239644",
          "miles" : "23761012"
        },
        "orbiting_body" : "Earth"
      } ],
      "orbital_data" : {
        "orbit_id" : "52",
        "orbit_determination_date" : "2017-04-12 06:15:55",
        "orbit_uncertainty" : "0",
        "minimum_orbit_intersection" : ".0801492",
        "jupiter_tisserand_invariant" : "3.675",
        "epoch_osculation" : "2458000.5",
        "eccentricity" : ".6593769580184502",
        "semi_major_axis" : "1.869930525851103",
        "inclination" : "8.190394530396354",
        "ascending_node_longitude" : "254.5060256108109",
        "orbital_period" : "933.9779729432621",
        "perihelion_distance" : ".6369414240095619",
        "perihelion_argument" : "132.6720461913232",
        "aphelion_distance" : "3.102919627692645",
        "perihelion_time" : "2457902.077525144422",
        "mean_anomaly" : "37.93675223019491",
        "mean_motion" : ".3854480624050751",
        "equinox" : "J2000"
      }
    }, {
      "links" : {
        "self" : "https://api.nasa.gov/neo/rest/v1/neo/3009717?api_key=t0TVs3DtDT2H8Oy2Zy8m2eVrNsAVKAexjcZXUckd"
      },
      "neo_reference_id" : "3009717",
      "name" : "(1997 AC11)",
      "nasa_jpl_url" : "http://ssd.jpl.nasa.gov/sbdb.cgi?sstr=3009717",
      "absolute_magnitude_h" : 20.5,
      "estimated_diameter" : {
        "kilometers" : {
          "estimated_diameter_min" : 0.2111324448,
          "estimated_diameter_max" : 0.4721064988
        },
        "meters" : {
          "estimated_diameter_min" : 211.1324447897,
          "estimated_diameter_max" : 472.1064988055
        },
        "miles" : {
          "estimated_diameter_min" : 0.1311915784,
          "estimated_diameter_max" : 0.2933532873
        },
        "feet" : {
          "estimated_diameter_min" : 692.6917701639,
          "estimated_diameter_max" : 1548.9058855411
        }
      },
      "is_potentially_hazardous_asteroid" : false,
      "close_approach_data" : [ {
        "close_approach_date" : "1997-01-22",
        "epoch_date_close_approach" : 853920000000,
        "relative_velocity" : {
          "kilometers_per_second" : "18.6405028057",
          "kilometers_per_hour" : "67105.810100434",
          "miles_per_hour" : "41696.9407260169"
        },
        "miss_distance" : {
          "astronomical" : "0.1074074295",
          "lunar" : "41.7814903259",
          "kilometers" : "16067923",
          "miles" : "9984144"
        },
        "orbiting_body" : "Earth"
      } ],
      "orbital_data" : {
        "orbit_id" : "17",
        "orbit_determination_date" : "2017-04-06 09:18:02",
        "orbit_uncertainty" : "1",
        "minimum_orbit_intersection" : ".104459",
        "jupiter_tisserand_invariant" : "6.361",
        "epoch_osculation" : "2458000.5",
        "eccentricity" : ".3680124354472985",
        "semi_major_axis" : ".9132312882499038",
        "inclination" : "31.69247566309302",
        "ascending_node_longitude" : "116.9429967455163",
        "orbital_period" : "318.7642441440861",
        "perihelion_distance" : ".5771508177343829",
        "perihelion_argument" : "141.5508638541322",
        "aphelion_distance" : "1.249311758765425",
        "perihelion_time" : "2457888.109192686031",
        "mean_anomaly" : "126.9298278471278",
        "mean_motion" : "1.129361296360688",
        "equinox" : "J2000"
      }
    }, {
      "links" : {
        "self" : "https://api.nasa.gov/neo/rest/v1/neo/3775199?api_key=t0TVs3DtDT2H8Oy2Zy8m2eVrNsAVKAexjcZXUckd"
      },
      "neo_reference_id" : "3775199",
      "name" : "(2017 KE35)",
      "nasa_jpl_url" : "http://ssd.jpl.nasa.gov/sbdb.cgi?sstr=3775199",
      "absolute_magnitude_h" : 19.313,
      "estimated_diameter" : {
        "kilometers" : {
          "estimated_diameter_min" : 0.3647161348,
          "estimated_diameter_max" : 0.8155300698
        },
        "meters" : {
          "estimated_diameter_min" : 364.7161347731,
          "estimated_diameter_max" : 815.5300698437
        },
        "miles" : {
          "estimated_diameter_min" : 0.2266240294,
          "estimated_diameter_max" : 0.506746735
        },
        "feet" : {
          "estimated_diameter_min" : 1196.575283609,
          "estimated_diameter_max" : 2675.6236743459
        }
      },
      "is_potentially_hazardous_asteroid" : false,
      "close_approach_data" : [ {
        "close_approach_date" : "1997-01-22",
        "epoch_date_close_approach" : 853920000000,
        "relative_velocity" : {
          "kilometers_per_second" : "10.9936656324",
          "kilometers_per_hour" : "39577.1962766069",
          "miles_per_hour" : "24591.730653095"
        },
        "miss_distance" : {
          "astronomical" : "0.466971257",
          "lunar" : "181.6518096924",
          "kilometers" : "69857904",
          "miles" : "43407688"
        },
        "orbiting_body" : "Earth"
      } ],
      "orbital_data" : {
        "orbit_id" : "3",
        "orbit_determination_date" : "2017-07-03 06:19:49",
        "orbit_uncertainty" : "5",
        "minimum_orbit_intersection" : ".377881",
        "jupiter_tisserand_invariant" : "3.897",
        "epoch_osculation" : "2458000.5",
        "eccentricity" : ".3406199428471033",
        "semi_major_axis" : "1.823646607171617",
        "inclination" : "20.29744738263527",
        "ascending_node_longitude" : "73.42763812296373",
        "orbital_period" : "899.5171571089431",
        "perihelion_distance" : "1.202476204063507",
        "perihelion_argument" : "76.86287316792576",
        "aphelion_distance" : "2.444817010279727",
        "perihelion_time" : "2457684.955424382004",
        "mean_anomaly" : "126.2855814641462",
        "mean_motion" : ".4002147120317788",
        "equinox" : "J2000"
      }
    } ]
  }
}